ONEWEB-0340             
1 49206U 21083W   25124.53927698  .00000049  00000+0  91135-4 0  9993
2 49206  87.9149  56.6689 0002120  81.1868 278.9504 13.18688166176117
ONEWEB-0341             
1 49207U 21083X   25124.31955149  .00000094  00000+0  20462-3 0  9996
2 49207  87.9148  56.7227 0002016  97.8901 262.2460 13.18686879176107
ONEWEB-0342             
1 49208U 21083Y   25124.56722949  .00000014  00000+0  15200-5 0  9992
2 49208  87.9287 355.8106 0001661  81.7353 278.3969 13.20772030182847
ONEWEB-0343             
1 49209U 21083Z   25124.31480522  .00000130  00000+0  29608-3 0  9998
2 49209  87.9142  56.7118 0001688  97.6717 262.4606 13.18688619176152
ONEWEB-0344             
1 49210U 21083AA  25124.50320262 -.00001280  00000+0 -35415-2 0  9996
2 49210  87.8999  41.4918 0001997  92.0272 268.1086 13.13457593177246
ONEWEB-0345             
1 49211U 21083AB  25124.49475778 -.00000253  00000+0 -72756-3 0  9997
2 49211  87.8993  41.4475 0002100  93.6503 266.4866 13.13467763177258
ONEWEB-0346             
1 49212U 21083AC  25124.55191964 -.00000009  00000+0 -54651-4 0  9991
2 49212  87.9145  56.6860 0002587  76.1858 283.9562 13.18684522177417
ONEWEB-0348             
1 49213U 21083AD  25124.63351876  .00000001  00000+0 -28923-4 0  9995
2 49213  87.9297 355.8000 0002413  91.1698 268.9712 13.20771514182881
